{
  "type": "FeatureCollection",
  "name": "constraints_opentrunk",
  "features": [
    {
      "type": "Feature",
      "id": "CON-001",
      "properties": {
        "id": "CON-001",
        "layer": "HERITAGE_PROTECTION",
        "source_type": "agent_inferred_from_public_data",
        "confidence": "medium",
        "geometry_role": "provisional_constraint",
        "name_zh": "京张铁路遗址公园文物保护与展示带",
        "official_boundary": false,
        "boundary_precision": "provisional_rough",
        "source_id": "DATA-SRC-PROVISIONAL-BOUNDARIES-20260605"
      },
      "geometry": {
        "type": "Polygon",
        "coordinates": [
          [
            [
              116.3505,
              39.939
            ],
            [
              116.3505,
              40.0265
            ],
            [
              116.3547,
              40.0265
            ],
            [
              116.3547,
              40.01554999999987
            ],
            [
              116.3533,
              39.99
            ],
            [
              116.3547,
              39.97250000000009
            ],
            [
              116.3547,
              39.939
            ],
            [
              116.3505,
              39.939
            ]
          ]
        ]
      }
    }
  ]
}
